FENGYUN 1C DEB          
1 32331U 99025CXY 26092.22964372  .00057694  00000+0  72284-2 0  9996
2 32331  99.1769  79.8662 0015907 136.1956 224.0517 14.81863695622491
FENGYUN 1C DEB          
1 32332U 99025CXZ 26095.42350789  .00002083  00000+0  10730-2 0  9993
2 32332  99.1184 153.8969 0281994   1.2208 358.9585 13.97778941946248
FENGYUN 1C DEB          
1 32334U 99025CYB 26095.11213006  .00000584  00000+0  40678-3 0  9990
2 32334  99.2330 156.0246 0067091 329.3197  30.4052 14.01801670955285
FENGYUN 1C DEB          
1 32340U 99025CYH 26095.34754774  .00017880  00000+0  24252-2 0  9990
2 32340  98.9742 118.7859 0030346 297.0062  62.8049 14.78639647988733
FENGYUN 1C DEB          
1 32342U 99025CYK 26095.76897493  .00000194  00000+0  12602-3 0  9991
2 32342  98.6699 105.8691 0008172  26.2178 151.9521 14.13451319953280
FENGYUN 1C DEB          
1 32343U 99025CYL 26092.21528215  .00000716  00000+0  31738-3 0  9993
2 32343  98.6221  81.1115 0151147 168.1840 192.2949 14.20075303662813
FENGYUN 1C DEB          
1 32350U 99025CYT 26094.38662461  .00006248  00000+0  94691-3 0  9996
2 32350  98.2089 142.1233 0262381 310.9416  46.9332 14.53871985991639
FENGYUN 1C DEB          
1 32352U 99025CYV 26093.05696659  .00001200  00000+0  35174-3 0  9991
2 32352  98.7838  21.1672 0120999 199.5547 160.0980 14.41701334668731
FENGYUN 1C DEB          
1 32353U 99025CYW 26087.28301958  .00003947  00000+0  23297-2 0  9997
2 32353  98.9280 266.9484 0123345 263.0717  95.6406 14.04670133646754
FENGYUN 1C DEB          
1 32356U 99025CYZ 26095.67885426  .00004919  00000+0  29354-2 0  9999
2 32356 102.4957   5.1018 0122403  98.6239 262.8803 14.04281887699863
FENGYUN 1C DEB          
1 32357U 99025CZA 26091.84293080  .00002784  00000+0  14052-2 0  9991
2 32357  98.8443 127.6996 0485238 255.7179 287.8577 13.69698544682942
FENGYUN 1C DEB          
1 32360U 99025CZD 26095.41457135  .00003943  00000+0  21776-2 0  9994
2 32360  98.1160 264.7604 0227138 346.2006  13.3018 13.99691718664066
FENGYUN 1C DEB          
1 32361U 99025CZE 26095.12541360  .00008273  00000+0  19872-2 0  9992
2 32361  98.8460 165.1865 0044974  63.5355 297.0443 14.53034564979907
FENGYUN 1C DEB          
1 32362U 99025CZF 26095.19634677  .00004370  00000+0  41626-2 0  9990
2 32362  99.8486  73.1908 0273519 357.2334   2.7284 13.65868070926783
FENGYUN 1C DEB          
1 32364U 99025CZH 26087.35787122  .00003722  00000+0  17845-2 0  9991
2 32364  98.3143 284.1490 0128532 238.2848 120.5746 14.15289267652027
FENGYUN 1C DEB          
1 32366U 99025CZK 26089.51695904  .00002545  00000+0  12332-2 0  9997
2 32366  96.7737 191.0026 0130497 304.4425  54.4477 14.14641051947273
