[{"OBJECT_NAME":"FENGYUN 1C DEB","OBJECT_ID":"1999-025CXY","EPOCH":"2026-04-02T05:30:41.217408","MEAN_MOTION":14.81863695,"ECCENTRICITY":0.00159072,"INCLINATION":99.1769,"RA_OF_ASC_NODE":79.8662,"ARG_OF_PERICENTER":136.1956,"MEAN_ANOMALY":224.0517,"EPHEMERIS_TYPE":0,"CLASSIFICATION_TYPE":"U","NORAD_CAT_ID":32331,"ELEMENT_SET_NO":999,"REV_AT_EPOCH":62249,"BSTAR":0.0072284102,"MEAN_MOTION_DOT":0.00057694,"MEAN_MOTION_DDOT":0},{"OBJECT_NAME":"FENGYUN 1C DEB","OBJECT_ID":"1999-025CXZ","EPOCH":"2026-04-05T10:09:51.081696","MEAN_MOTION":13.97778941,"ECCENTRICITY":0.02819941,"INCLINATION":99.1184,"RA_OF_ASC_NODE":153.8969,"ARG_OF_PERICENTER":1.2208,"MEAN_ANOMALY":358.9585,"EPHEMERIS_TYPE":0,"CLASSIFICATION_TYPE":"U","NORAD_CAT_ID":32332,"ELEMENT_SET_NO":999,"REV_AT_EPOCH":94624,"BSTAR":0.0010729983,"MEAN_MOTION_DOT":2.083e-5,"MEAN_MOTION_DDOT":0},{"OBJECT_NAME":"FENGYUN 1C DEB","OBJECT_ID":"1999-025CYB","EPOCH":"2026-04-05T02:41:28.037184","MEAN_MOTION":14.0180167,"ECCENTRICITY":0.00670914,"INCLINATION":99.233,"RA_OF_ASC_NODE":156.0246,"ARG_OF_PERICENTER":329.3197,"MEAN_ANOMALY":30.4052,"EPHEMERIS_TYPE":0,"CLASSIFICATION_TYPE":"U","NORAD_CAT_ID":32334,"ELEMENT_SET_NO":999,"REV_AT_EPOCH":95528,"BSTAR":0.00040678297,"MEAN_MOTION_DOT":5.84e-6,"MEAN_MOTION_DDOT":0},{"OBJECT_NAME":"FENGYUN 1C DEB","OBJECT_ID":"1999-025CYH","EPOCH":"2026-04-05T08:20:28.124736","MEAN_MOTION":14.78639647,"ECCENTRICITY":0.00303462,"INCLINATION":98.9742,"RA_OF_ASC_NODE":118.7859,"ARG_OF_PERICENTER":297.0062,"MEAN_ANOMALY":62.8049,"EPHEMERIS_TYPE":0,"CLASSIFICATION_TYPE":"U","NORAD_CAT_ID":32340,"ELEMENT_SET_NO":999,"REV_AT_EPOCH":98873,"BSTAR":0.002425225,"MEAN_MOTION_DOT":0.0001788,"MEAN_MOTION_DDOT":0},{"OBJECT_NAME":"FENGYUN 1C DEB","OBJECT_ID":"1999-025CYK","EPOCH":"2026-04-05T18:27:19.433952","MEAN_MOTION":14.13451319,"ECCENTRICITY":0.0008172,"INCLINATION":98.6699,"RA_OF_ASC_NODE":105.8691,"ARG_OF_PERICENTER":26.2178,"MEAN_ANOMALY":151.9521,"EPHEMERIS_TYPE":0,"CLASSIFICATION_TYPE":"U","NORAD_CAT_ID":32342,"ELEMENT_SET_NO":999,"REV_AT_EPOCH":95328,"BSTAR":0.00012602,"MEAN_MOTION_DOT":1.94e-6,"MEAN_MOTION_DDOT":0},{"OBJECT_NAME":"FENGYUN 1C DEB","OBJECT_ID":"1999-025CYL","EPOCH":"2026-04-02T05:10:00.377760","MEAN_MOTION":14.20075303,"ECCENTRICITY":0.01511473,"INCLINATION":98.6221,"RA_OF_ASC_NODE":81.1115,"ARG_OF_PERICENTER":168.184,"MEAN_ANOMALY":192.2949,"EPHEMERIS_TYPE":0,"CLASSIFICATION_TYPE":"U","NORAD_CAT_ID":32343,"ELEMENT_SET_NO":999,"REV_AT_EPOCH":66281,"BSTAR":0.00031737853,"MEAN_MOTION_DOT":7.16e-6,"MEAN_MOTION_DDOT":0},{"OBJECT_NAME":"FENGYUN 1C DEB","OBJECT_ID":"1999-025CYT","EPOCH":"2026-04-04T09:16:44.366304","MEAN_MOTION":14.53871985,"ECCENTRICITY":0.02623818,"INCLINATION":98.2089,"RA_OF_ASC_NODE":142.1233,"ARG_OF_PERICENTER":310.9416,"MEAN_ANOMALY":46.9332,"EPHEMERIS_TYPE":0,"CLASSIFICATION_TYPE":"U","NORAD_CAT_ID":32350,"ELEMENT_SET_NO":999,"REV_AT_EPOCH":99163,"BSTAR":0.00094691361,"MEAN_MOTION_DOT":6.248e-5,"MEAN_MOTION_DDOT":0},{"OBJECT_NAME":"FENGYUN 1C DEB","OBJECT_ID":"1999-025CYV","EPOCH":"2026-04-03T01:22:01.913376","MEAN_MOTION":14.41701334,"ECCENTRICITY":0.01209998,"INCLINATION":98.7838,"RA_OF_ASC_NODE":21.1672,"ARG_OF_PERICENTER":199.5547,"MEAN_ANOMALY":160.098,"EPHEMERIS_TYPE":0,"CLASSIFICATION_TYPE":"U","NORAD_CAT_ID":32352,"ELEMENT_SET_NO":999,"REV_AT_EPOCH":66873,"BSTAR":0.00035174053,"MEAN_MOTION_DOT":1.2e-5,"MEAN_MOTION_DDOT":0},{"OBJECT_NAME":"FENGYUN 1C DEB","OBJECT_ID":"1999-025CYW","EPOCH":"2026-03-28T06:47:32.891712","MEAN_MOTION":14.04670133,"ECCENTRICITY":0.0123345,"INCLINATION":98.928,"RA_OF_ASC_NODE":266.9484,"ARG_OF_PERICENTER":263.0717,"MEAN_ANOMALY":95.6406,"EPHEMERIS_TYPE":0,"CLASSIFICATION_TYPE":"U","NORAD_CAT_ID":32353,"ELEMENT_SET_NO":999,"REV_AT_EPOCH":64675,"BSTAR":0.0023297,"MEAN_MOTION_DOT":3.947e-5,"MEAN_MOTION_DDOT":0},{"OBJECT_NAME":"FENGYUN 1C DEB","OBJECT_ID":"1999-025CYZ","EPOCH":"2026-04-05T16:17:33.008064","MEAN_MOTION":14.04281887,"ECCENTRICITY":0.0122403,"INCLINATION":102.4957,"RA_OF_ASC_NODE":5.1018,"ARG_OF_PERICENTER":98.6239,"MEAN_ANOMALY":262.8803,"EPHEMERIS_TYPE":0,"CLASSIFICATION_TYPE":"U","NORAD_CAT_ID":32356,"ELEMENT_SET_NO":999,"REV_AT_EPOCH":69986,"BSTAR":0.0029354,"MEAN_MOTION_DOT":4.919e-5,"MEAN_MOTION_DDOT":0},{"OBJECT_NAME":"FENGYUN 1C DEB","OBJECT_ID":"1999-025CZA","EPOCH":"2026-04-01T20:13:49.221120","MEAN_MOTION":13.69698544,"ECCENTRICITY":0.04852382,"INCLINATION":98.8443,"RA_OF_ASC_NODE":127.6996,"ARG_OF_PERICENTER":255.7179,"MEAN_ANOMALY":287.8577,"EPHEMERIS_TYPE":0,"CLASSIFICATION_TYPE":"U","NORAD_CAT_ID":32357,"ELEMENT_SET_NO":999,"REV_AT_EPOCH":68294,"BSTAR":0.0014052031,"MEAN_MOTION_DOT":2.784e-5,"MEAN_MOTION_DDOT":0},{"OBJECT_NAME":"FENGYUN 1C DEB","OBJECT_ID":"1999-025CZD","EPOCH":"2026-04-05T09:56:58.964640","MEAN_MOTION":13.99691718,"ECCENTRICITY":0.02271386,"INCLINATION":98.116,"RA_OF_ASC_NODE":264.7604,"ARG_OF_PERICENTER":346.2006,"MEAN_ANOMALY":13.3018,"EPHEMERIS_TYPE":0,"CLASSIFICATION_TYPE":"U","NORAD_CAT_ID":32360,"ELEMENT_SET_NO":999,"REV_AT_EPOCH":66406,"BSTAR":0.0021775939,"MEAN_MOTION_DOT":3.943e-5,"MEAN_MOTION_DDOT":0},{"OBJECT_NAME":"FENGYUN 1C DEB","OBJECT_ID":"1999-025CZE","EPOCH":"2026-04-05T03:00:35.735040","MEAN_MOTION":14.53034564,"ECCENTRICITY":0.00449748,"INCLINATION":98.846,"RA_OF_ASC_NODE":165.1865,"ARG_OF_PERICENTER":63.5355,"MEAN_ANOMALY":297.0443,"EPHEMERIS_TYPE":0,"CLASSIFICATION_TYPE":"U","NORAD_CAT_ID":32361,"ELEMENT_SET_NO":999,"REV_AT_EPOCH":97990,"BSTAR":0.0019871874,"MEAN_MOTION_DOT":8.273e-5,"MEAN_MOTION_DDOT":0},{"OBJECT_NAME":"FENGYUN 1C DEB","OBJECT_ID":"1999-025CZF","EPOCH":"2026-04-05T04:42:44.360928","MEAN_MOTION":13.6586807,"ECCENTRICITY":0.02735196,"INCLINATION":99.8486,"RA_OF_ASC_NODE":73.1908,"ARG_OF_PERICENTER":357.2334,"MEAN_ANOMALY":2.7284,"EPHEMERIS_TYPE":0,"CLASSIFICATION_TYPE":"U","NORAD_CAT_ID":32362,"ELEMENT_SET_NO":999,"REV_AT_EPOCH":92678,"BSTAR":0.0041625906,"MEAN_MOTION_DOT":4.37e-5,"MEAN_MOTION_DDOT":0},{"OBJECT_NAME":"FENGYUN 1C DEB","OBJECT_ID":"1999-025CZH","EPOCH":"2026-03-28T08:35:20.073408","MEAN_MOTION":14.15289267,"ECCENTRICITY":0.01285327,"INCLINATION":98.3143,"RA_OF_ASC_NODE":284.149,"ARG_OF_PERICENTER":238.2848,"MEAN_ANOMALY":120.5746,"EPHEMERIS_TYPE":0,"CLASSIFICATION_TYPE":"U","NORAD_CAT_ID":32364,"ELEMENT_SET_NO":999,"REV_AT_EPOCH":65202,"BSTAR":0.0017844663,"MEAN_MOTION_DOT":3.722e-5,"MEAN_MOTION_DDOT":0},{"OBJECT_NAME":"FENGYUN 1C DEB","OBJECT_ID":"1999-025CZK","EPOCH":"2026-03-30T12:24:25.261056","MEAN_MOTION":14.14641051,"ECCENTRICITY":0.01304975,"INCLINATION":96.7737,"RA_OF_ASC_NODE":191.0026,"ARG_OF_PERICENTER":304.4425,"MEAN_ANOMALY":54.4477,"EPHEMERIS_TYPE":0,"CLASSIFICATION_TYPE":"U","NORAD_CAT_ID":32366,"ELEMENT_SET_NO":999,"REV_AT_EPOCH":94727,"BSTAR":0.0012332402,"MEAN_MOTION_DOT":2.545e-5,"MEAN_MOTION_DDOT":0}]
